TEVEL2-8                
1 63239U 25052AF  26068.66815442  .00019130  00000+0  69304-3 0  9993
2 63239  97.4055 324.2923 0008031 124.9191 235.2804 15.28392908 54807
STARLINK-34278          
1 64391U 25127X   26068.38327428  .00028922  00000+0  10566-2 0  9991
2 64391  42.9994 181.2082 0001176 232.4641 127.6104 15.27574143 42423
